{"type":"Feature","properties":{"cogdepartement":"30","siren":null,"cogregion":"76","nom":"Gard"},"geometry":{"type":"MultiPolygon","coordinates":[[[[4.12741,43.513796],[4.126891,43.514949],[4.128725,43.515181],[4.126832,43.515917],[4.12981,43.516031],[4.128106,43.516698],[4.129688,43.517625],[4.131152,43.515855],[4.130004,43.515024],[4.132786,43.515491],[4.13075,43.514321],[4.132313,43.512799],[4.129177,43.512987],[4.129444,43.514719],[4.12741,43.513796]]],[[[4.134879,43.509888],[4.135114,43.509253],[4.134332,43.509609],[4.134879,43.509888]]],[[[3.919568,43.881309],[3.916879,43.887856],[3.911301,43.889139],[3.910748,43.886585],[3.903288,43.879243],[3.897706,43.877665],[3.876311,43.878476],[3.869516,43.876179],[3.856925,43.877154],[3.852339,43.873279],[3.851885,43.86753],[3.837975,43.87072],[3.830716,43.866432],[3.824965,43.871649],[3.822439,43.871462],[3.82402,43.873143],[3.822664,43.874338],[3.803881,43.879194],[3.799661,43.891168],[3.820061,43.911078],[3.828431,43.923351],[3.82902,43.924512],[3.823539,43.929442],[3.826892,43.933946],[3.826703,43.936691],[3.820348,43.94237],[3.80668,43.940968],[3.806002,43.943886],[3.796481,43.943566],[3.795514,43.942275],[3.786842,43.954538],[3.787689,43.966808],[3.780551,43.967534],[3.779619,43.965163],[3.769556,43.968983],[3.758368,43.967637],[3.752134,43.972753],[3.749644,43.967741],[3.745304,43.968472],[3.743639,43.966606],[3.732169,43.972013],[3.726842,43.970544],[3.726972,43.968249],[3.716683,43.960774],[3.712056,43.959429],[3.704763,43.962074],[3.690384,43.951626],[3.685561,43.953825],[3.682725,43.946836],[3.688538,43.944868],[3.689775,43.939367],[3.683629,43.940459],[3.683014,43.937357],[3.675783,43.931458],[3.675366,43.929566],[3.678609,43.926739],[3.678623,43.924716],[3.671447,43.909641],[3.640929,43.915594],[3.646588,43.912157],[3.64626,43.904553],[3.647848,43.901679],[3.639278,43.896181],[3.632471,43.899519],[3.639694,43.913108],[3.638844,43.916116],[3.623571,43.916882],[3.612367,43.905209],[3.612218,43.902458],[3.607362,43.902271],[3.599959,43.892425],[3.602252,43.890746],[3.600088,43.889151],[3.600623,43.887818],[3.585867,43.88077],[3.574868,43.865497],[3.583306,43.85883],[3.599139,43.8546],[3.600534,43.849446],[3.588151,43.84884],[3.584657,43.847285],[3.581077,43.848248],[3.581706,43.845623],[3.579558,43.845374],[3.578863,43.843613],[3.57094,43.846769],[3.568146,43.852619],[3.558921,43.856442],[3.555573,43.856107],[3.553608,43.851513],[3.538207,43.853332],[3.532291,43.857277],[3.528496,43.853919],[3.525694,43.858013],[3.527511,43.860572],[3.524429,43.864159],[3.519233,43.863256],[3.518276,43.864649],[3.521773,43.865617],[3.523376,43.868007],[3.52323,43.869541],[3.51977,43.871186],[3.523127,43.873302],[3.521927,43.875054],[3.524195,43.876874],[3.521518,43.87836],[3.524151,43.88113],[3.521239,43.880968],[3.520491,43.882848],[3.523551,43.883759],[3.523515,43.885722],[3.520737,43.885514],[3.522904,43.888426],[3.518225,43.887355],[3.515659,43.8895],[3.518957,43.892423],[3.515516,43.891756],[3.515565,43.893995],[3.512835,43.89615],[3.511851,43.894721],[3.508354,43.895191],[3.505214,43.897316],[3.502432,43.896883],[3.503828,43.895943],[3.501598,43.893834],[3.503688,43.892694],[3.502993,43.891132],[3.497799,43.892075],[3.496345,43.88907],[3.494196,43.891307],[3.48536,43.889637],[3.483393,43.892358],[3.465668,43.874581],[3.456545,43.869015],[3.446078,43.869513],[3.435529,43.863167],[3.431777,43.863038],[3.427073,43.869286],[3.422091,43.87266],[3.431413,43.872753],[3.432607,43.880577],[3.43535,43.885099],[3.441877,43.887544],[3.434757,43.890042],[3.432152,43.893942],[3.433842,43.895691],[3.440169,43.896694],[3.43783,43.901098],[3.42687,43.907327],[3.426921,43.909322],[3.423222,43.912652],[3.418222,43.914599],[3.411214,43.913065],[3.409075,43.915292],[3.407888,43.913527],[3.400767,43.91475],[3.397883,43.913837],[3.396836,43.910163],[3.394974,43.909044],[3.393201,43.910704],[3.389828,43.908953],[3.390609,43.9111],[3.383219,43.910334],[3.381461,43.912263],[3.379573,43.91083],[3.369988,43.917264],[3.366826,43.916856],[3.366923,43.914177],[3.368987,43.913834],[3.360875,43.91026],[3.357077,43.911978],[3.358587,43.91439],[3.355879,43.914218],[3.35711,43.918058],[3.355747,43.919492],[3.357356,43.920446],[3.352754,43.922525],[3.35447,43.924465],[3.351676,43.929081],[3.354002,43.930445],[3.350868,43.931717],[3.350456,43.934253],[3.352597,43.935402],[3.351138,43.938453],[3.358976,43.951138],[3.375648,43.955947],[3.377356,43.967507],[3.392167,43.967243],[3.40586,43.969741],[3.405239,43.971972],[3.411176,43.98202],[3.416514,43.986553],[3.417966,43.992988],[3.427817,43.996657],[3.440265,43.998188],[3.445949,44.004805],[3.446824,44.00953],[3.449459,44.011817],[3.448405,44.019632],[3.451759,44.021815],[3.443239,44.024606],[3.429008,44.035015],[3.422029,44.036147],[3.42112,44.038831],[3.41727,44.041586],[3.411084,44.040729],[3.400009,44.043639],[3.393579,44.047775],[3.390144,44.053499],[3.390055,44.057206],[3.382887,44.057183],[3.377215,44.050971],[3.371407,44.049399],[3.369974,44.049477],[3.37251,44.05239],[3.372262,44.054307],[3.367395,44.058173],[3.352659,44.049912],[3.337679,44.058292],[3.336881,44.066805],[3.334724,44.068218],[3.333045,44.073958],[3.328914,44.079025],[3.32479,44.077082],[3.323634,44.079617],[3.318694,44.079278],[3.307012,44.068819],[3.302035,44.069492],[3.293978,44.067517],[3.293506,44.069154],[3.297328,44.070959],[3.297112,44.072155],[3.289616,44.071761],[3.28507,44.07705],[3.281064,44.077712],[3.27983,44.081669],[3.275384,44.083855],[3.27695,44.087387],[3.267272,44.088527],[3.2625,44.0937],[3.267842,44.094816],[3.271664,44.097738],[3.278214,44.096755],[3.282193,44.100652],[3.288329,44.102748],[3.291762,44.105829],[3.294652,44.104435],[3.30459,44.104182],[3.306612,44.105424],[3.311995,44.104193],[3.317496,44.108203],[3.322059,44.109656],[3.324165,44.108603],[3.324271,44.121312],[3.322721,44.121213],[3.323945,44.126017],[3.32114,44.129864],[3.320296,44.135905],[3.330219,44.142164],[3.332273,44.141785],[3.334621,44.158822],[3.34425,44.158733],[3.35722,44.167983],[3.371048,44.168626],[3.374011,44.170966],[3.395622,44.168625],[3.396558,44.161233],[3.405277,44.162164],[3.411133,44.153923],[3.420897,44.153467],[3.425103,44.149784],[3.43086,44.14804],[3.432914,44.142844],[3.432918,44.134952],[3.439411,44.129328],[3.45049,44.126651],[3.470821,44.127127],[3.480852,44.123968],[3.508055,44.126276],[3.522241,44.120787],[3.535338,44.121231],[3.540341,44.118862],[3.543367,44.113417],[3.543653,44.109584],[3.546113,44.114464],[3.55638,44.118087],[3.564175,44.123481],[3.583443,44.121504],[3.589543,44.118311],[3.591485,44.119962],[3.598061,44.119129],[3.604277,44.115324],[3.611596,44.116102],[3.619678,44.119658],[3.624693,44.117846],[3.632832,44.12122],[3.634525,44.124608],[3.63242,44.128249],[3.635273,44.13289],[3.633536,44.136113],[3.635999,44.140579],[3.638356,44.142134],[3.649308,44.143217],[3.653243,44.145966],[3.643288,44.148019],[3.638811,44.151535],[3.626161,44.153295],[3.633055,44.163123],[3.633135,44.168006],[3.636419,44.170188],[3.638012,44.174988],[3.637042,44.176258],[3.649644,44.180847],[3.650399,44.178356],[3.657264,44.175206],[3.657407,44.173331],[3.660692,44.173893],[3.671371,44.179109],[3.67137,44.181672],[3.668048,44.184456],[3.670016,44.186543],[3.677622,44.183059],[3.685041,44.182607],[3.683538,44.180498],[3.692552,44.171333],[3.699774,44.169875],[3.70625,44.164694],[3.725255,44.164337],[3.737,44.15586],[3.748427,44.155227],[3.752369,44.150544],[3.760391,44.15116],[3.762455,44.148795],[3.760856,44.144319],[3.764853,44.140976],[3.773586,44.143523],[3.773038,44.141597],[3.775668,44.141877],[3.782417,44.134279],[3.794569,44.130026],[3.796998,44.127385],[3.812653,44.128802],[3.820241,44.132484],[3.822882,44.136469],[3.830924,44.137478],[3.838171,44.134372],[3.847711,44.135853],[3.856635,44.129959],[3.86137,44.132639],[3.875273,44.126229],[3.875822,44.127957],[3.873875,44.130431],[3.885809,44.139903],[3.889631,44.144939],[3.900832,44.149824],[3.909482,44.147145],[3.911067,44.149146],[3.911597,44.160119],[3.92025,44.158609],[3.927271,44.161295],[3.926314,44.167704],[3.927567,44.167503],[3.928563,44.169929],[3.924947,44.177311],[3.922409,44.178607],[3.923326,44.182335],[3.932312,44.181484],[3.935091,44.178116],[3.946463,44.175026],[3.946549,44.173673],[3.951259,44.171255],[3.958063,44.170424],[3.974192,44.162877],[3.973281,44.167256],[3.976968,44.170999],[3.970991,44.174806],[3.970396,44.172333],[3.964868,44.170983],[3.966531,44.17199],[3.96423,44.17275],[3.966421,44.175764],[3.962032,44.174749],[3.96438,44.178779],[3.958483,44.180769],[3.959332,44.183851],[3.957001,44.184365],[3.959604,44.186767],[3.956658,44.188111],[3.962197,44.188365],[3.959343,44.189534],[3.959818,44.191238],[3.957207,44.193798],[3.953926,44.193516],[3.954863,44.191698],[3.950623,44.194624],[3.943528,44.194776],[3.940035,44.192661],[3.940394,44.194251],[3.936506,44.195078],[3.943684,44.204331],[3.947298,44.216106],[3.951583,44.218262],[3.952125,44.222142],[3.947878,44.226563],[3.947639,44.230899],[3.944823,44.232388],[3.947415,44.237145],[3.945451,44.240704],[3.94634,44.242454],[3.955046,44.249822],[3.956528,44.24893],[3.954203,44.246857],[3.95931,44.247907],[3.961002,44.250945],[3.96545,44.247551],[3.967861,44.249551],[3.968094,44.251863],[3.971491,44.250348],[3.975494,44.258837],[3.970928,44.262202],[3.968909,44.266875],[3.9631,44.267457],[3.960096,44.270803],[3.955739,44.272083],[3.94728,44.268906],[3.945696,44.266681],[3.94137,44.271877],[3.933723,44.275715],[3.939823,44.283335],[3.939977,44.285793],[3.936913,44.29364],[3.933016,44.297193],[3.925184,44.300591],[3.92286,44.305221],[3.933225,44.31206],[3.944532,44.317043],[3.945352,44.324256],[3.947685,44.327319],[3.95013,44.327755],[3.948382,44.326654],[3.948915,44.323801],[3.952254,44.327958],[3.952035,44.332233],[3.949525,44.334653],[3.944597,44.33606],[3.934628,44.335908],[3.933544,44.340954],[3.931024,44.340432],[3.924266,44.346702],[3.926992,44.348865],[3.926863,44.350714],[3.916511,44.359509],[3.913099,44.368076],[3.907733,44.375236],[3.895829,44.378521],[3.88572,44.388088],[3.888557,44.390213],[3.888892,44.392949],[3.895963,44.389364],[3.898269,44.389972],[3.907518,44.402306],[3.917543,44.405311],[3.926961,44.405779],[3.935474,44.402485],[3.938896,44.402755],[3.94462,44.399585],[3.952032,44.401609],[3.948836,44.403762],[3.948448,44.41232],[3.951724,44.412983],[3.957034,44.411119],[3.961147,44.413967],[3.973079,44.426689],[3.971046,44.431232],[3.972143,44.436377],[3.97697,44.439884],[3.975533,44.443144],[3.978114,44.445097],[3.985479,44.445828],[3.985351,44.447646],[3.987118,44.450111],[3.988817,44.449711],[3.990722,44.454095],[3.993732,44.454696],[3.994973,44.458773],[3.99837,44.45966],[4.001893,44.459115],[4.004464,44.45635],[4.009439,44.456584],[4.011634,44.454479],[4.015296,44.454591],[4.014856,44.45082],[4.022007,44.450008],[4.021309,44.447264],[4.023199,44.445689],[4.028002,44.444615],[4.030651,44.446491],[4.034148,44.443626],[4.037175,44.446085],[4.041846,44.440904],[4.04265,44.436708],[4.04525,44.435388],[4.04633,44.431833],[4.045415,44.429599],[4.042067,44.427947],[4.04268,44.426302],[4.03544,44.419921],[4.039688,44.418046],[4.047766,44.418086],[4.057271,44.413653],[4.0611,44.409162],[4.068431,44.405046],[4.066146,44.400686],[4.062336,44.398672],[4.064458,44.394053],[4.057699,44.394351],[4.056249,44.39262],[4.04701,44.397462],[4.044199,44.394361],[4.041843,44.394361],[4.040218,44.391637],[4.043766,44.38451],[4.053133,44.378895],[4.050562,44.374052],[4.052993,44.370277],[4.053028,44.366955],[4.057338,44.363682],[4.055419,44.359164],[4.053143,44.360039],[4.054419,44.35067],[4.050687,44.347194],[4.054299,44.337651],[4.051802,44.337752],[4.047844,44.333996],[4.035685,44.329678],[4.043301,44.323972],[4.046668,44.323812],[4.046326,44.321486],[4.049602,44.321253],[4.046922,44.318989],[4.051681,44.316976],[4.070341,44.325586],[4.073712,44.329799],[4.085281,44.328418],[4.08721,44.330743],[4.093198,44.330527],[4.093147,44.334437],[4.096481,44.33487],[4.104252,44.334075],[4.116155,44.326916],[4.119296,44.332826],[4.123316,44.336026],[4.126157,44.337587],[4.129917,44.336863],[4.135385,44.330881],[4.134702,44.328569],[4.14194,44.32749],[4.140575,44.326213],[4.142419,44.322748],[4.141111,44.318165],[4.142919,44.313199],[4.163895,44.312051],[4.168667,44.313828],[4.170902,44.316809],[4.177623,44.317725],[4.177751,44.312862],[4.183424,44.302686],[4.186793,44.299605],[4.215209,44.290692],[4.225177,44.28293],[4.225766,44.28059],[4.241609,44.269676],[4.249288,44.265817],[4.258546,44.264337],[4.258288,44.265788],[4.263765,44.268976],[4.271749,44.270914],[4.277637,44.275137],[4.280522,44.28363],[4.28367,44.28533],[4.288997,44.292143],[4.290742,44.30885],[4.28821,44.314802],[4.290552,44.316635],[4.29293,44.315589],[4.293988,44.312966],[4.303524,44.314763],[4.31633,44.320568],[4.321752,44.324014],[4.325646,44.330718],[4.330251,44.331845],[4.328644,44.336115],[4.325776,44.338326],[4.342933,44.339807],[4.368014,44.339371],[4.383596,44.344071],[4.387291,44.347073],[4.391425,44.34676],[4.394942,44.344663],[4.40326,44.33358],[4.389512,44.300971],[4.394134,44.299964],[4.392553,44.298229],[4.3952,44.290978],[4.400898,44.287255],[4.404164,44.288944],[4.420584,44.287096],[4.426709,44.287632],[4.433305,44.29164],[4.431165,44.288144],[4.433546,44.286761],[4.43334,44.284506],[4.434394,44.283268],[4.439333,44.283405],[4.445435,44.287341],[4.446878,44.293391],[4.45326,44.297914],[4.448404,44.296605],[4.45074,44.334086],[4.453072,44.338944],[4.457616,44.341636],[4.464922,44.341689],[4.467291,44.340274],[4.474731,44.342079],[4.480452,44.336819],[4.488549,44.338805],[4.499601,44.338337],[4.503425,44.339858],[4.502393,44.343353],[4.504407,44.344259],[4.507104,44.342357],[4.507344,44.33712],[4.513034,44.334637],[4.511499,44.3315],[4.512686,44.328105],[4.52255,44.330533],[4.532816,44.322542],[4.548521,44.326065],[4.549134,44.323478],[4.544735,44.320619],[4.559925,44.301963],[4.569608,44.299306],[4.575882,44.300851],[4.586981,44.294596],[4.606818,44.290472],[4.612229,44.286131],[4.613714,44.280553],[4.616359,44.278198],[4.629125,44.284227],[4.636663,44.284028],[4.639651,44.280502],[4.640808,44.274802],[4.645758,44.270696],[4.649454,44.270338],[4.649366,44.262985],[4.654173,44.254216],[4.660958,44.247755],[4.673361,44.239634],[4.677704,44.234699],[4.678178,44.229529],[4.673096,44.218398],[4.674281,44.214407],[4.680684,44.212168],[4.694202,44.215449],[4.702125,44.215878],[4.706381,44.214458],[4.70983,44.208202],[4.704186,44.199541],[4.705803,44.192723],[4.715477,44.191062],[4.722471,44.187319],[4.719692,44.177083],[4.71638,44.176695],[4.718033,44.173605],[4.715861,44.165947],[4.718872,44.144649],[4.711659,44.134634],[4.710686,44.119523],[4.706934,44.113646],[4.706074,44.107799],[4.708616,44.102199],[4.719342,44.091094],[4.720467,44.081839],[4.726923,44.078284],[4.737865,44.083802],[4.751465,44.088062],[4.760588,44.086992],[4.76054,44.07898],[4.757952,44.077285],[4.759657,44.074999],[4.787208,44.065904],[4.788444,44.063304],[4.787822,44.053074],[4.80777,44.040357],[4.814754,44.033706],[4.816862,44.030438],[4.817937,44.021242],[4.819961,44.01698],[4.836363,44.015174],[4.841935,44.012009],[4.845569,43.99664],[4.844383,43.989308],[4.840903,43.985932],[4.833382,43.98511],[4.817796,43.988739],[4.812761,43.987791],[4.809683,43.977751],[4.814696,43.969368],[4.814191,43.9644],[4.809592,43.960688],[4.793754,43.954465],[4.788627,43.946921],[4.778931,43.937879],[4.76878,43.933815],[4.76042,43.934796],[4.747921,43.931315],[4.739284,43.924134],[4.740235,43.919755],[4.729886,43.912645],[4.723389,43.906065],[4.698137,43.897099],[4.709333,43.898038],[4.69287,43.884533],[4.667413,43.87635],[4.663786,43.87098],[4.66236,43.87084],[4.660013,43.875974],[4.650528,43.869799],[4.642076,43.867525],[4.643125,43.863275],[4.648379,43.859014],[4.647311,43.856753],[4.64304,43.854598],[4.641256,43.851107],[4.645057,43.849888],[4.651584,43.852423],[4.660228,43.85323],[4.665285,43.850974],[4.666761,43.846611],[4.663534,43.843042],[4.64993,43.839168],[4.650996,43.838334],[4.645542,43.835344],[4.642332,43.831064],[4.644466,43.825419],[4.646776,43.825509],[4.651559,43.818103],[4.655236,43.807493],[4.651572,43.782497],[4.630137,43.762379],[4.624837,43.747098],[4.612708,43.727016],[4.612162,43.720621],[4.614505,43.709931],[4.625357,43.695738],[4.627751,43.690183],[4.627316,43.685395],[4.617363,43.688761],[4.602464,43.685805],[4.594945,43.687028],[4.589427,43.689468],[4.580433,43.697019],[4.559425,43.699065],[4.539382,43.707563],[4.533412,43.706819],[4.5251,43.702342],[4.49989,43.702051],[4.485558,43.698626],[4.475909,43.685481],[4.478652,43.676087],[4.477646,43.672844],[4.472787,43.670317],[4.457882,43.668037],[4.451458,43.664581],[4.439328,43.646705],[4.434728,43.634086],[4.426308,43.625001],[4.426548,43.621839],[4.429701,43.618142],[4.440633,43.610552],[4.45111,43.610707],[4.464489,43.61542],[4.469004,43.61447],[4.473134,43.611264],[4.475085,43.608394],[4.474487,43.604473],[4.466944,43.598907],[4.460327,43.588943],[4.452484,43.584282],[4.446767,43.583099],[4.430961,43.585802],[4.423977,43.584668],[4.402976,43.573188],[4.416546,43.571537],[4.415572,43.566377],[4.408784,43.560819],[4.403311,43.559253],[4.387707,43.562427],[4.38553,43.556517],[4.380922,43.552596],[4.365046,43.547155],[4.350933,43.547014],[4.348916,43.542587],[4.334311,43.535394],[4.316524,43.544129],[4.3162,43.547901],[4.323006,43.553844],[4.318449,43.557291],[4.313896,43.555618],[4.317034,43.553577],[4.317029,43.551966],[4.311284,43.551276],[4.307942,43.547816],[4.307833,43.545419],[4.31699,43.533822],[4.324691,43.528239],[4.319407,43.525199],[4.309528,43.524948],[4.296495,43.514717],[4.272605,43.508115],[4.259222,43.50778],[4.239743,43.499199],[4.237979,43.496613],[4.239386,43.493474],[4.230417,43.478612],[4.231856,43.474455],[4.229605,43.460157],[4.190149,43.46589],[4.173113,43.469867],[4.141777,43.479929],[4.128693,43.487617],[4.121635,43.49468],[4.112887,43.507617],[4.110013,43.509023],[4.115914,43.509803],[4.115811,43.510838],[4.116082,43.509831],[4.132647,43.510234],[4.13418,43.508394],[4.138091,43.510253],[4.134873,43.511359],[4.129376,43.510412],[4.129053,43.51076],[4.120565,43.510434],[4.116441,43.510487],[4.116357,43.510777],[4.121582,43.510778],[4.122364,43.51196],[4.122375,43.514351],[4.119625,43.514008],[4.122799,43.514546],[4.122538,43.517483],[4.120438,43.517344],[4.122717,43.517788],[4.122517,43.519512],[4.120944,43.519595],[4.121577,43.521289],[4.124025,43.518789],[4.126022,43.519752],[4.127685,43.517668],[4.125257,43.516219],[4.125218,43.514435],[4.129658,43.512099],[4.134144,43.511362],[4.138265,43.513563],[4.135595,43.514705],[4.136022,43.513643],[4.134547,43.51436],[4.135489,43.512635],[4.133688,43.512366],[4.134442,43.515241],[4.131191,43.517309],[4.133698,43.517696],[4.135548,43.516432],[4.134857,43.515301],[4.136232,43.516275],[4.136686,43.514854],[4.13877,43.514677],[4.138473,43.516969],[4.134971,43.519236],[4.136385,43.519869],[4.139114,43.517186],[4.14108,43.518026],[4.139224,43.520483],[4.137085,43.521009],[4.13208,43.518331],[4.124938,43.521877],[4.122644,43.520845],[4.129021,43.523928],[4.133964,43.523144],[4.137418,43.525017],[4.136274,43.526844],[4.138636,43.52689],[4.137729,43.530539],[4.138842,43.531735],[4.135728,43.532973],[4.135438,43.535023],[4.132101,43.534654],[4.139264,43.538192],[4.138998,43.53991],[4.136697,43.540087],[4.138081,43.538062],[4.131664,43.535029],[4.133533,43.537314],[4.126049,43.544519],[4.123754,43.545544],[4.122313,43.544201],[4.123343,43.545607],[4.120344,43.54723],[4.119291,43.546333],[4.120093,43.547273],[4.116204,43.549367],[4.101321,43.553332],[4.10933,43.56822],[4.108116,43.570197],[4.096077,43.581409],[4.080503,43.590087],[4.074695,43.588556],[4.085194,43.591967],[4.098625,43.585114],[4.124491,43.589019],[4.132706,43.586524],[4.150241,43.585445],[4.149587,43.597893],[4.156192,43.599859],[4.168324,43.608635],[4.193679,43.641849],[4.190813,43.647707],[4.194504,43.654201],[4.18771,43.659935],[4.184621,43.666468],[4.181122,43.667829],[4.180645,43.671253],[4.177409,43.672278],[4.179046,43.675773],[4.17443,43.676954],[4.163241,43.68684],[4.163497,43.694322],[4.166492,43.699695],[4.163541,43.702395],[4.163446,43.707012],[4.151457,43.717959],[4.15115,43.722378],[4.146366,43.726017],[4.143486,43.736098],[4.139359,43.739105],[4.132056,43.74063],[4.125654,43.739824],[4.121934,43.736844],[4.115351,43.737166],[4.10869,43.742464],[4.104973,43.748405],[4.092629,43.752822],[4.092706,43.758899],[4.090188,43.761543],[4.093232,43.762673],[4.085091,43.768297],[4.069974,43.767182],[4.067435,43.764976],[4.063287,43.772291],[4.059311,43.773435],[4.053443,43.772416],[4.051307,43.774743],[4.053792,43.778166],[4.051326,43.778865],[4.054213,43.783536],[4.053567,43.785558],[4.049193,43.789414],[4.030419,43.799267],[4.030712,43.800651],[4.022594,43.803605],[4.018397,43.807628],[4.013904,43.807236],[4.001029,43.812923],[3.974452,43.801496],[3.973597,43.803561],[3.965659,43.802262],[3.961947,43.806255],[3.959173,43.805036],[3.962002,43.809737],[3.961256,43.816436],[3.971073,43.825599],[3.978082,43.829655],[3.97254,43.837229],[3.976981,43.839099],[3.980649,43.843114],[3.971877,43.844628],[3.95818,43.843639],[3.956836,43.84639],[3.958348,43.854056],[3.937679,43.853407],[3.92778,43.855365],[3.922127,43.858368],[3.917551,43.871301],[3.919568,43.881309]]]]}}